[{"OBJECT_NAME":"AL-FARABI 2","OBJECT_ID":"2018-099AZ","EPOCH":"2026-03-09T22:26:01.961088","MEAN_MOTION":15.6820138,"ECCENTRICITY":0.00045442,"INCLINATION":97.4095,"RA_OF_ASC_NODE":144.7856,"ARG_OF_PERICENTER":216.2732,"MEAN_ANOMALY":143.8222,"EPHEMERIS_TYPE":0,"CLASSIFICATION_TYPE":"U","NORAD_CAT_ID":43805,"ELEMENT_SET_NO":999,"REV_AT_EPOCH":39939,"BSTAR":0.0015578554,"MEAN_MOTION_DOT":0.00177018,"MEAN_MOTION_DDOT":0},{"OBJECT_NAME":"STARLINK-11098 [DTC]","OBJECT_ID":"2024-091H","EPOCH":"2026-03-09T14:56:05.411040","MEAN_MOTION":15.697047,"ECCENTRICITY":6.19e-5,"INCLINATION":53.159,"RA_OF_ASC_NODE":206.5306,"ARG_OF_PERICENTER":90.866,"MEAN_ANOMALY":269.2429,"EPHEMERIS_TYPE":0,"CLASSIFICATION_TYPE":"U","NORAD_CAT_ID":59760,"ELEMENT_SET_NO":999,"REV_AT_EPOCH":10550,"BSTAR":-1.4064e-6,"MEAN_MOTION_DOT":-7.58e-6,"MEAN_MOTION_DDOT":0}]
